start=new Date('2022-05-23T00:00:00.000Z').valueOf();
sats=[{"ELEMENT_SET_NO":"999","SEMIMAJOR_AXIS":"6925.420","MEAN_ANOMALY":"292.3234","OBJECT_NAME":"STARLINK-2425","BSTAR":"-0.00014825000000","DECAY_DATE":null,"APOAPSIS":"548.311","MEAN_MOTION":"15.06376689","TIME_SYSTEM":"UTC","NORAD_CAT_ID":"47835","TLE_LINE1":"1 47835U 21018BA  22142.89608572 -.00002487  00000-0 -14825-3 0  9991","SITE":"AFETR","OBJECT_ID":"2021-018BA","CENTER_NAME":"EARTH","GP_ID":"204281241","ARG_OF_PERICENTER":"67.7912","EPOCH":"2022-05-22T21:30:21.806208","INCLINATION":"53.0565","ECCENTRICITY":"0.00014810","PERIOD":"95.594","MEAN_MOTION_DDOT":"0.0000000000000","OBJECT_TYPE":"PAYLOAD","LAUNCH_DATE":"2021-03-11","MEAN_ELEMENT_THEORY":"SGP4","COUNTRY_CODE":"US","TLE_LINE2":"2 47835  53.0565   2.1696 0001481  67.7912 292.3234 15.06376689 67495","REV_AT_EPOCH":"6749","FILE":"3459268","MEAN_MOTION_DOT":"-0.00002487","RCS_SIZE":"LARGE","EPHEMERIS_TYPE":"0","RA_OF_ASC_NODE":"2.1696","CLASSIFICATION_TYPE":"U","PERIAPSIS":"546.259","REF_FRAME":"TEME"},{"DECAY_DATE":null,"BSTAR":"-0.00007488500000","APOAPSIS":"548.374","OBJECT_NAME":"STARLINK-2426","MEAN_ANOMALY":"302.4296","SEMIMAJOR_AXIS":"6925.393","ELEMENT_SET_NO":"999","TIME_SYSTEM":"UTC","NORAD_CAT_ID":"47836","MEAN_MOTION":"15.06385633","TLE_LINE1":"1 47836U 21018BB  22142.89100814 -.00001396  00000-0 -74885-4 0  9999","SITE":"AFETR","CENTER_NAME":"EARTH","GP_ID":"204280496","OBJECT_ID":"2021-018BB","INCLINATION":"53.0560","EPOCH":"2022-05-22T21:23:03.103296","ARG_OF_PERICENTER":"57.6849","MEAN_ELEMENT_THEORY":"SGP4","OBJECT_TYPE":"PAYLOAD","PERIOD":"95.593","MEAN_MOTION_DDOT":"0.0000000000000","ECCENTRICITY":"0.00016120","LAUNCH_DATE":"2021-03-11","EPHEMERIS_TYPE":"0","RA_OF_ASC_NODE":"357.2080","COUNTRY_CODE":"US","TLE_LINE2":"2 47836  53.0560 357.2080 0001612  57.6849 302.4296 15.06385633 67574","RCS_SIZE":"LARGE","MEAN_MOTION_DOT":"-0.00001396","FILE":"3459268","REV_AT_EPOCH":"6757","REF_FRAME":"TEME","PERIAPSIS":"546.141","CLASSIFICATION_TYPE":"U"},{"OBJECT_ID":"2021-018BC","CENTER_NAME":"EARTH","GP_ID":"204280746","TLE_LINE1":"1 47837U 21018BC  22142.84216943  .00000597  00000-0  59002-4 0  9990","SITE":"AFETR","MEAN_MOTION":"15.06405387","TIME_SYSTEM":"UTC","NORAD_CAT_ID":"47837","ELEMENT_SET_NO":"999","SEMIMAJOR_AXIS":"6925.332","MEAN_ANOMALY":"311.2833","OBJECT_NAME":"STARLINK-2427","BSTAR":"0.00005900200000","DECAY_DATE":null,"APOAPSIS":"548.453","CLASSIFICATION_TYPE":"U","PERIAPSIS":"545.941","REF_FRAME":"TEME","COUNTRY_CODE":"US","TLE_LINE2":"2 47837  53.0548 337.4242 0001813  48.8312 311.2833 15.06405387 67856","REV_AT_EPOCH":"6785","FILE":"3459268","MEAN_MOTION_DOT":"0.00000597","RCS_SIZE":"LARGE","EPHEMERIS_TYPE":"0","RA_OF_ASC_NODE":"337.4242","PERIOD":"95.592","ECCENTRICITY":"0.00018130","MEAN_MOTION_DDOT":"0.0000000000000","OBJECT_TYPE":"PAYLOAD","LAUNCH_DATE":"2021-03-11","MEAN_ELEMENT_THEORY":"SGP4","ARG_OF_PERICENTER":"48.8312","EPOCH":"2022-05-22T20:12:43.438752","INCLINATION":"53.0548"},{"APOAPSIS":"548.450","DECAY_DATE":null,"BSTAR":"0.00028711000000","OBJECT_NAME":"STARLINK-2429","MEAN_ANOMALY":"309.2995","SEMIMAJOR_AXIS":"6925.324","ELEMENT_SET_NO":"999","NORAD_CAT_ID":"47838","TIME_SYSTEM":"UTC","MEAN_MOTION":"15.06408159","SITE":"AFETR","TLE_LINE1":"1 47838U 21018BD  22142.85507733  .00003998  00000-0  28711-3 0  9992","GP_ID":"204281494","CENTER_NAME":"EARTH","OBJECT_ID":"2021-018BD","INCLINATION":"53.0559","EPOCH":"2022-05-22T20:31:18.681312","ARG_OF_PERICENTER":"50.8156","MEAN_ELEMENT_THEORY":"SGP4","LAUNCH_DATE":"2021-03-11","OBJECT_TYPE":"PAYLOAD","PERIOD":"95.592","MEAN_MOTION_DDOT":"0.0000000000000","ECCENTRICITY":"0.00018210","RA_OF_ASC_NODE":"357.3650","EPHEMERIS_TYPE":"0","RCS_SIZE":"LARGE","MEAN_MOTION_DOT":"0.00003998","FILE":"3459268","REV_AT_EPOCH":"6756","COUNTRY_CODE":"US","TLE_LINE2":"2 47838  53.0559 357.3650 0001821  50.8156 309.2995 15.06408159 67565","PERIAPSIS":"545.927","REF_FRAME":"TEME","CLASSIFICATION_TYPE":"U"},{"REF_FRAME":"TEME","PERIAPSIS":"546.197","CLASSIFICATION_TYPE":"U","RA_OF_ASC_NODE":"327.5175","EPHEMERIS_TYPE":"0","RCS_SIZE":"LARGE","FILE":"3459268","REV_AT_EPOCH":"6799","MEAN_MOTION_DOT":"0.00000839","COUNTRY_CODE":"US","TLE_LINE2":"2 47839  53.0551 327.5175 0001455  74.3697 285.7453 15.06402773 67993","MEAN_ELEMENT_THEORY":"SGP4","LAUNCH_DATE":"2021-03-11","OBJECT_TYPE":"PAYLOAD","PERIOD":"95.592","ECCENTRICITY":"0.00014550","MEAN_MOTION_DDOT":"0.0000000000000","INCLINATION":"53.0551","EPOCH":"2022-05-22T19:36:54.242208","ARG_OF_PERICENTER":"74.3697","GP_ID":"204281740","CENTER_NAME":"EARTH","OBJECT_ID":"2021-018BE","SITE":"AFETR","TLE_LINE1":"1 47839U 21018BE  22142.81729447  .00000839  00000-0  75231-4 0  9998","NORAD_CAT_ID":"47839","TIME_SYSTEM":"UTC","MEAN_MOTION":"15.06402773","DECAY_DATE":null,"BSTAR":"0.00007523100000","APOAPSIS":"548.213","MEAN_ANOMALY":"285.7453","OBJECT_NAME":"STARLINK-2431","SEMIMAJOR_AXIS":"6925.340","ELEMENT_SET_NO":"999"},{"OBJECT_ID":"2021-018BF","CENTER_NAME":"EARTH","GP_ID":"204279997","TLE_LINE1":"1 47840U 21018BF  22142.82743020  .00000868  00000-0  77160-4 0  9999","SITE":"AFETR","MEAN_MOTION":"15.06401196","TIME_SYSTEM":"UTC","NORAD_CAT_ID":"47840","ELEMENT_SET_NO":"999","SEMIMAJOR_AXIS":"6925.345","MEAN_ANOMALY":"292.8585","OBJECT_NAME":"STARLINK-2432","APOAPSIS":"548.355","DECAY_DATE":null,"BSTAR":"0.00007716000000","CLASSIFICATION_TYPE":"U","PERIAPSIS":"546.065","REF_FRAME":"TEME","TLE_LINE2":"2 47840  53.0570 337.4914 0001653  67.2579 292.8585 15.06401196 67844","COUNTRY_CODE":"US","REV_AT_EPOCH":"6784","FILE":"3459268","MEAN_MOTION_DOT":"0.00000868","RCS_SIZE":"LARGE","EPHEMERIS_TYPE":"0","RA_OF_ASC_NODE":"337.4914","MEAN_MOTION_DDOT":"0.0000000000000","PERIOD":"95.592","ECCENTRICITY":"0.00016530","OBJECT_TYPE":"PAYLOAD","LAUNCH_DATE":"2021-03-11","MEAN_ELEMENT_THEORY":"SGP4","ARG_OF_PERICENTER":"67.2579","INCLINATION":"53.0570","EPOCH":"2022-05-22T19:51:29.969280"},{"MEAN_MOTION":"15.06394246","TIME_SYSTEM":"UTC","NORAD_CAT_ID":"47841","SEMIMAJOR_AXIS":"6925.366","ELEMENT_SET_NO":"999","DECAY_DATE":null,"BSTAR":"-0.00001448200000","APOAPSIS":"548.077","OBJECT_NAME":"STARLINK-2433","MEAN_ANOMALY":"283.9743","OBJECT_ID":"2021-018BG","CENTER_NAME":"EARTH","GP_ID":"204280247","TLE_LINE1":"1 47841U 21018BG  22142.82375029 -.00000497  00000-0 -14482-4 0  9998","SITE":"AFETR","OBJECT_TYPE":"PAYLOAD","PERIOD":"95.593","ECCENTRICITY":"0.00012220","MEAN_MOTION_DDOT":"0.0000000000000","LAUNCH_DATE":"2021-03-11","MEAN_ELEMENT_THEORY":"SGP4","ARG_OF_PERICENTER":"76.1382","INCLINATION":"53.0572","EPOCH":"2022-05-22T19:46:12.025056","CLASSIFICATION_TYPE":"U","PERIAPSIS":"546.385","REF_FRAME":"TEME","TLE_LINE2":"2 47841  53.0572 337.5042 0001222  76.1382 283.9743 15.06394246 67847","COUNTRY_CODE":"US","RCS_SIZE":"LARGE","REV_AT_EPOCH":"6784","FILE":"3459268","MEAN_MOTION_DOT":"-0.00000497","EPHEMERIS_TYPE":"0","RA_OF_ASC_NODE":"337.5042"},{"INCLINATION":"53.0566","EPOCH":"2022-05-22T21:01:50.257632","ARG_OF_PERICENTER":"68.9603","MEAN_ELEMENT_THEORY":"SGP4","LAUNCH_DATE":"2021-03-11","PERIOD":"95.592","MEAN_MOTION_DDOT":"0.0000000000000","ECCENTRICITY":"0.00016040","OBJECT_TYPE":"PAYLOAD","RA_OF_ASC_NODE":"7.2692","EPHEMERIS_TYPE":"0","FILE":"3459268","REV_AT_EPOCH":"6748","MEAN_MOTION_DOT":"0.00000312","RCS_SIZE":"LARGE","COUNTRY_CODE":"US","TLE_LINE2":"2 47842  53.0566   7.2692 0001604  68.9603 291.1558 15.06397770 67482","REF_FRAME":"TEME","PERIAPSIS":"546.110","CLASSIFICATION_TYPE":"U","OBJECT_NAME":"STARLINK-2434","MEAN_ANOMALY":"291.1558","APOAPSIS":"548.331","DECAY_DATE":null,"BSTAR":"0.00003985800000","ELEMENT_SET_NO":"999","SEMIMAJOR_AXIS":"6925.355","NORAD_CAT_ID":"47842","TIME_SYSTEM":"UTC","MEAN_MOTION":"15.06397770","SITE":"AFETR","TLE_LINE1":"1 47842U 21018BH  22142.87627613  .00000312  00000-0  39858-4 0  9991","GP_ID":"204280996","CENTER_NAME":"EARTH","OBJECT_ID":"2021-018BH"},{"CLASSIFICATION_TYPE":"U","REF_FRAME":"TEME","PERIAPSIS":"546.102","TLE_LINE2":"2 47843  53.0551   2.1012 0001665  59.1142 301.0010 15.06386355 67520","COUNTRY_CODE":"US","RCS_SIZE":"LARGE","FILE":"3459268","MEAN_MOTION_DOT":"-0.00001783","REV_AT_EPOCH":"6752","EPHEMERIS_TYPE":"0","RA_OF_ASC_NODE":"2.1012","OBJECT_TYPE":"PAYLOAD","PERIOD":"95.593","ECCENTRICITY":"0.00016650","MEAN_MOTION_DDOT":"0.0000000000000","LAUNCH_DATE":"2021-03-11","MEAN_ELEMENT_THEORY":"SGP4","ARG_OF_PERICENTER":"59.1142","INCLINATION":"53.0551","EPOCH":"2022-05-22T21:58:14.097216","OBJECT_ID":"2021-018BJ","CENTER_NAME":"EARTH","GP_ID":"204281242","TLE_LINE1":"1 47843U 21018BJ  22142.91544094 -.00001783  00000-0 -10084-3 0  9992","SITE":"AFETR","MEAN_MOTION":"15.06386355","TIME_SYSTEM":"UTC","NORAD_CAT_ID":"47843","SEMIMAJOR_AXIS":"6925.390","ELEMENT_SET_NO":"999","APOAPSIS":"548.408","DECAY_DATE":null,"BSTAR":"-0.00010084000000","OBJECT_NAME":"STARLINK-2435","MEAN_ANOMALY":"301.0010"},{"MEAN_MOTION":"15.06396760","NORAD_CAT_ID":"47844","TIME_SYSTEM":"UTC","ELEMENT_SET_NO":"999","SEMIMAJOR_AXIS":"6925.358","OBJECT_NAME":"STARLINK-2446","MEAN_ANOMALY":"298.6867","DECAY_DATE":null,"BSTAR":"0.00045619000000","APOAPSIS":"548.208","OBJECT_ID":"2021-018BK","GP_ID":"204280497","CENTER_NAME":"EARTH","SITE":"AFETR","TLE_LINE1":"1 47844U 21018BK  22142.91407129  .00006519  00000-0  45619-3 0  9992","LAUNCH_DATE":"2021-03-11","ECCENTRICITY":"0.00014220","PERIOD":"95.592","MEAN_MOTION_DDOT":"0.0000000000000","OBJECT_TYPE":"PAYLOAD","MEAN_ELEMENT_THEORY":"SGP4","ARG_OF_PERICENTER":"61.4265","EPOCH":"2022-05-22T21:56:15.759456","INCLINATION":"53.0535","CLASSIFICATION_TYPE":"U","REF_FRAME":"TEME","PERIAPSIS":"546.239","FILE":"3459268","REV_AT_EPOCH":"6757","MEAN_MOTION_DOT":"0.00006519","RCS_SIZE":"LARGE","COUNTRY_CODE":"US","TLE_LINE2":"2 47844  53.0535 357.1091 0001422  61.4265 298.6867 15.06396760 67573","RA_OF_ASC_NODE":"357.1091","EPHEMERIS_TYPE":"0"}];
